{"type": "FeatureCollection", "features": [ {"type": "Feature", "properties": {"norad_id": 44622, "name": "GAOFEN-10R", "group": "resource", "lat": 53.66229530953731, "lon": -78.58045889165116, "alt_km": 609.9782382243357, "timestamp": "2025-12-10T23:33:12.484476+00:00", "meta": {"OBJECT_NAME": "GAOFEN-10R", "OBJECT_ID": "2019-066A", "EPOCH": "2025-12-10T15:12:40.821984", "MEAN_MOTION": 14.82780843, "ECCENTRICITY": 0.00079775, "INCLINATION": 98.0276, "RA_OF_ASC_NODE": 292.1318, "ARG_OF_PERICENTER": 47.8344, "MEAN_ANOMALY": 312.3546, "EPHEMERIS_TYPE": 0, "CLASSIFICATION_TYPE": "U", "NORAD_CAT_ID": 44622, "ELEMENT_SET_NO": 999, "REV_AT_EPOCH": 33443, "BSTAR": 0.00034315592, "MEAN_MOTION_DOT": 2.721e-05, "MEAN_MOTION_DDOT": 0}, "tle": {"line1": "1 44622U 19066A   25344.63380581  .00002721  00000+0  34316-3 0  9993", "line2": "2 44622  98.0276 292.1318 0007977  47.8344 312.3546 14.82780843334434"}}, "geometry": {"type": "Point", "coordinates": [-78.58045889165116, 53.66229530953731]}}, {"type": "Feature", "properties": {"norad_id": 44804, "name": "CARTOSAT-3", "group": "resource", "lat": -12.573997378540453, "lon": 46.26186083167606, "alt_km": 514.8106353248995, "timestamp": "2025-12-10T23:33:12.484486+00:00", "meta": {"OBJECT_NAME": "CARTOSAT-3", "OBJECT_ID": "2019-081A", "EPOCH": "2025-12-10T14:07:31.315296", "MEAN_MOTION": 15.19342567, "ECCENTRICITY": 0.00139869, "INCLINATION": 97.4579, "RA_OF_ASC_NODE": 44.1996, "ARG_OF_PERICENTER": 93.5404, "MEAN_ANOMALY": 266.7431, "EPHEMERIS_TYPE": 0, "CLASSIFICATION_TYPE": "U", "NORAD_CAT_ID": 44804, "ELEMENT_SET_NO": 999, "REV_AT_EPOCH": 33483, "BSTAR": 0.00036028009, "MEAN_MOTION_DOT": 7.566e-05, "MEAN_MOTION_DDOT": 0}, "tle": {"line1": "1 44804U 19081A   25344.58855689  .00007566  00000+0  36028-3 0  9996", "line2": "2 44804  97.4579  44.1996 0013986  93.5404 266.7431 15.19342567334831"}}, "geometry": {"type": "Point", "coordinates": [46.26186083167606, -12.573997378540453]}}, {"type": "Feature", "properties": {"norad_id": 44819, "name": "GAOFEN-12 01", "group": "resource", "lat": -24.822602056435358, "lon": -5.050261401594752, "alt_km": 632.8503663774245, "timestamp": "2025-12-10T23:33:12.484495+00:00", "meta": {"OBJECT_NAME": "GAOFEN-12 01", "OBJECT_ID": "2019-082A", "EPOCH": "2025-12-10T15:33:25.114176", "MEAN_MOTION": 14.80653592, "ECCENTRICITY": 0.00012183, "INCLINATION": 97.8127, "RA_OF_ASC_NODE": 350.9841, "ARG_OF_PERICENTER": 247.6602, "MEAN_ANOMALY": 112.4482, "EPHEMERIS_TYPE": 0, "CLASSIFICATION_TYPE": "U", "NORAD_CAT_ID": 44819, "ELEMENT_SET_NO": 999, "REV_AT_EPOCH": 32619, "BSTAR": 0.00011569847, "MEAN_MOTION_DOT": 8.38e-06, "MEAN_MOTION_DDOT": 0}, "tle": {"line1": "1 44819U 19082A   25344.64820734  .00000838  00000+0  11570-3 0  9993", "line2": "2 44819  97.8127 350.9841 0001218 247.6602 112.4482 14.80653592326197"}}, "geometry": {"type": "Point", "coordinates": [-5.050261401594752, -24.822602056435358]}}, {"type": "Feature", "properties": {"norad_id": 44873, "name": "CSG-1", "group": "resource", "lat": 74.32106805911637, "lon": 136.76198122186813, "alt_km": 614.4175698528798, "timestamp": "2025-12-10T23:33:12.484505+00:00", "meta": {"OBJECT_NAME": "CSG-1", "OBJECT_ID": "2019-092A", "EPOCH": "2025-12-10T15:06:31.859424", "MEAN_MOTION": 14.82159799, "ECCENTRICITY": 0.00014472, "INCLINATION": 97.881, "RA_OF_ASC_NODE": 165.9855, "ARG_OF_PERICENTER": 84.6956, "MEAN_ANOMALY": 275.4422, "EPHEMERIS_TYPE": 0, "CLASSIFICATION_TYPE": "U", "NORAD_CAT_ID": 44873, "ELEMENT_SET_NO": 999, "REV_AT_EPOCH": 32354, "BSTAR": 0.00014041332, "MEAN_MOTION_DOT": 1.066e-05, "MEAN_MOTION_DDOT": 0}, "tle": {"line1": "1 44873U 19092A   25344.62953541  .00001066  00000+0  14041-3 0  9995", "line2": "2 44873  97.8810 165.9855 0001447  84.6956 275.4422 14.82159799323542"}}, "geometry": {"type": "Point", "coordinates": [136.76198122186813, 74.32106805911637]}}, {"type": "Feature", "properties": {"norad_id": 46277, "name": "NEMO-HD", "group": "resource", "lat": -47.424073118090014, "lon": -143.83096568571213, "alt_km": 453.56870142724074, "timestamp": "2025-12-10T23:33:12.484514+00:00", "meta": {"OBJECT_NAME": "NEMO-HD", "OBJECT_ID": "2020-061F", "EPOCH": "2025-12-10T14:46:16.862880", "MEAN_MOTION": 15.40255079, "ECCENTRICITY": 0.00020184, "INCLINATION": 97.2211, "RA_OF_ASC_NODE": 43.7401, "ARG_OF_PERICENTER": 58.6702, "MEAN_ANOMALY": 301.4742, "EPHEMERIS_TYPE": 0, "CLASSIFICATION_TYPE": "U", "NORAD_CAT_ID": 46277, "ELEMENT_SET_NO": 999, "REV_AT_EPOCH": 29291, "BSTAR": 0.00038878083, "MEAN_MOTION_DOT": 0.00015573, "MEAN_MOTION_DDOT": 0}, "tle": {"line1": "1 46277U 20061F   25344.61547295  .00015573  00000+0  38878-3 0  9999", "line2": "2 46277  97.2211  43.7401 0002018  58.6702 301.4742 15.40255079292910"}}, "geometry": {"type": "Point", "coordinates": [-143.83096568571213, -47.424073118090014]}}, {"type": "Feature", "properties": {"norad_id": 46984, "name": "SENTINEL-6A", "group": "resource", "lat": -65.97803311763592, "lon": 79.85732528042, "alt_km": 1338.1406375606566, "timestamp": "2025-12-10T23:33:12.484523+00:00", "meta": {"OBJECT_NAME": "SENTINEL-6A", "OBJECT_ID": "2020-086A", "EPOCH": "2025-12-09T23:39:14.637312", "MEAN_MOTION": 12.8093052, "ECCENTRICITY": 0.00077304, "INCLINATION": 66.0391, "RA_OF_ASC_NODE": 168.0287, "ARG_OF_PERICENTER": 269.1798, "MEAN_ANOMALY": 90.8331, "EPHEMERIS_TYPE": 0, "CLASSIFICATION_TYPE": "U", "NORAD_CAT_ID": 46984, "ELEMENT_SET_NO": 999, "REV_AT_EPOCH": 23609, "BSTAR": 6.617319e-05, "MEAN_MOTION_DOT": -4.6e-07, "MEAN_MOTION_DDOT": 0}, "tle": {"line1": "1 46984U 20086A   25343.98558608 -.00000046  00000+0  66173-4 0  9990", "line2": "2 46984  66.0391 168.0287 0007730 269.1798  90.8331 12.80930520236093"}}, "geometry": {"type": "Point", "coordinates": [79.85732528042, -65.97803311763592]}}, {"type": "Feature", "properties": {"norad_id": 48079, "name": "GAOFEN-12 02", "group": "resource", "lat": -13.834548440573009, "lon": -19.022653188709864, "alt_km": 632.9823537307648, "timestamp": "2025-12-10T23:33:12.484532+00:00", "meta": {"OBJECT_NAME": "GAOFEN-12 02", "OBJECT_ID": "2021-026A", "EPOCH": "2025-12-10T15:30:25.473888", "MEAN_MOTION": 14.80671309, "ECCENTRICITY": 0.00034937, "INCLINATION": 97.9851, "RA_OF_ASC_NODE": 338.6627, "ARG_OF_PERICENTER": 105.2445, "MEAN_ANOMALY": 254.9154, "EPHEMERIS_TYPE": 0, "CLASSIFICATION_TYPE": "U", "NORAD_CAT_ID": 48079, "ELEMENT_SET_NO": 999, "REV_AT_EPOCH": 25386, "BSTAR": 0.00012298681, "MEAN_MOTION_DOT": 8.92e-06, "MEAN_MOTION_DDOT": 0}, "tle": {"line1": "1 48079U 21026A   25344.64612817  .00000892  00000+0  12299-3 0  9996", "line2": "2 48079  97.9851 338.6627 0003493 105.2445 254.9154 14.80671309253867"}}, "geometry": {"type": "Point", "coordinates": [-19.022653188709864, -13.834548440573009]}}, {"type": "Feature", "properties": {"norad_id": 48268, "name": "PLEIADES NEO 3", "group": "resource", "lat": 46.195398740937435, "lon": 49.12864860035938, "alt_km": 619.3818252256324, "timestamp": "2025-12-10T23:33:12.484541+00:00", "meta": {"OBJECT_NAME": "PLEIADES NEO 3", "OBJECT_ID": "2021-034A", "EPOCH": "2025-12-10T15:14:21.199776", "MEAN_MOTION": 14.81673059, "ECCENTRICITY": 0.0001371, "INCLINATION": 97.895, "RA_OF_ASC_NODE": 57.106, "ARG_OF_PERICENTER": 94.9453, "MEAN_ANOMALY": 265.1917, "EPHEMERIS_TYPE": 0, "CLASSIFICATION_TYPE": "U", "NORAD_CAT_ID": 48268, "ELEMENT_SET_NO": 999, "REV_AT_EPOCH": 24973, "BSTAR": 2.1076e-05, "MEAN_MOTION_DOT": 1.14e-06, "MEAN_MOTION_DDOT": 0}, "tle": {"line1": "1 48268U 21034A   25344.63496759  .00000114  00000+0  21076-4 0  9990", "line2": "2 48268  97.8950  57.1060 0001371  94.9453 265.1917 14.81673059249733"}}, "geometry": {"type": "Point", "coordinates": [49.12864860035938, 46.195398740937435]}}, {"type": "Feature", "properties": {"norad_id": 49070, "name": "PLEIADES NEO 4", "group": "resource", "lat": -46.4918634786669, "lon": -130.9623406243077, "alt_km": 631.5791739939059, "timestamp": "2025-12-10T23:33:12.484550+00:00", "meta": {"OBJECT_NAME": "PLEIADES NEO 4", "OBJECT_ID": "2021-073E", "EPOCH": "2025-12-09T14:07:00.443712", "MEAN_MOTION": 14.81679595, "ECCENTRICITY": 0.0001363, "INCLINATION": 97.8947, "RA_OF_ASC_NODE": 56.0703, "ARG_OF_PERICENTER": 89.0853, "MEAN_ANOMALY": 271.0516, "EPHEMERIS_TYPE": 0, "CLASSIFICATION_TYPE": "U", "NORAD_CAT_ID": 49070, "ELEMENT_SET_NO": 999, "REV_AT_EPOCH": 23329, "BSTAR": 7.8728e-05, "MEAN_MOTION_DOT": 5.68e-06, "MEAN_MOTION_DDOT": 0}, "tle": {"line1": "1 49070U 21073E   25343.58819958  .00000568  00000+0  78728-4 0  9997", "line2": "2 49070  97.8947  56.0703 0001363  89.0853 271.0516 14.81679595233299"}}, "geometry": {"type": "Point", "coordinates": [-130.9623406243077, -46.4918634786669]}}, {"type": "Feature", "properties": {"norad_id": 49260, "name": "LANDSAT 9", "group": "resource", "lat": 38.35976244047352, "lon": 46.55702696178841, "alt_km": 699.1527650585622, "timestamp": "2025-12-10T23:33:12.484559+00:00", "meta": {"OBJECT_NAME": "LANDSAT 9", "OBJECT_ID": "2021-088A", "EPOCH": "2025-12-10T15:08:08.172960", "MEAN_MOTION": 14.57127046, "ECCENTRICITY": 0.00011205, "INCLINATION": 98.2097, "RA_OF_ASC_NODE": 52.7724, "ARG_OF_PERICENTER": 95.127, "MEAN_ANOMALY": 265.0056, "EPHEMERIS_TYPE": 0, "CLASSIFICATION_TYPE": "U", "NORAD_CAT_ID": 49260, "ELEMENT_SET_NO": 999, "REV_AT_EPOCH": 22354, "BSTAR": 0.00017140802, "MEAN_MOTION_DOT": 7.27e-06, "MEAN_MOTION_DDOT": 0}, "tle": {"line1": "1 49260U 21088A   25344.63065015  .00000727  00000+0  17141-3 0  9996", "line2": "2 49260  98.2097  52.7724 0001120  95.1270 265.0056 14.57127046223540"}}, "geometry": {"type": "Point", "coordinates": [46.55702696178841, 38.35976244047352]}}]}